OBJECT_NAME,OBJECT_ID,EPOCH,MEAN_MOTION,ECCENTRICITY,INCLINATION,RA_OF_ASC_NODE,ARG_OF_PERICENTER,MEAN_ANOMALY,EPHEMERIS_TYPE,CLASSIFICATION_TYPE,NORAD_CAT_ID,ELEMENT_SET_NO,REV_AT_EPOCH,BSTAR,MEAN_MOTION_DOT,MEAN_MOTION_DDOT
ONEWEB-0174,2021-025AG,2026-07-11T06:43:11.842752,13.13468965,.0002011,87.8986,315.4251,94.9684,265.1675,0,U,48072,999,25699,-.31444E-3,-.102E-5,0
ONEWEB-0175,2021-025AH,2026-07-10T07:41:01.681440,13.13470035,.00020141,87.8977,315.6021,111.4979,248.6365,0,U,48073,999,25652,.32051985E-3,.13E-5,0
ONEWEB-0177,2021-025AJ,2026-07-11T07:44:08.481696,13.13470254,.0002103,87.8966,315.4200,97.1107,263.0261,0,U,48074,999,25684,.68469E-3,.263E-5,0
ONEWEB-0178,2021-025AK,2026-07-11T06:21:27.825696,13.13469904,.0002098,87.8971,315.4421,106.6700,253.4659,0,U,48075,999,25688,.64936E-3,.25E-5,0
ONEWEB-0108,2021-025AL,2026-07-11T07:12:26.578368,13.13469572,.0001681,87.8989,315.4169,95.4022,264.7298,0,U,48076,999,25681,-.5713E-3,-.196E-5,0
ONEWEB-0169,2021-025AM,2026-07-09T06:36:58.801248,13.13469031,.0002025,87.8988,315.8237,94.6036,265.5324,0,U,48077,999,25520,.4444269E-3,.175E-5,0
GAOFEN-12 02,2021-026A,2026-07-11T11:49:08.999328,14.80314489,.0005595,97.9931,190.5748,141.9021,218.2588,0,U,48079,999,28535,.33268E-4,.201E-5,0
STARLINK-2404,2021-027B,2026-07-11T07:54:55.475136,15.31709948,.000102,53.1599,299.6604,74.7846,285.3268,0,U,48093,999,29160,.41735E-4,.931E-5,0
STARLINK-2412,2021-027C,2026-07-11T07:32:06.082656,15.31708211,.0000993,53.1610,310.5481,36.2746,323.8323,0,U,48094,999,29145,.14618E-4,.89E-6,0
STARLINK-2414,2021-027D,2026-07-11T11:47:04.992000,15.31712474,.0001046,53.1586,309.4411,63.9366,296.1743,0,U,48095,999,29149,.60116E-4,.1502E-4,0
STARLINK-2417,2021-027E,2026-07-11T11:33:41.217120,15.31705683,.0001001,53.1588,309.6308,64.2811,295.8293,0,U,48096,999,29147,.54253E-5,-.197E-5,0
STARLINK-2418,2021-027F,2026-07-11T12:56:04.987104,15.31701083,.0001122,53.1571,296.6759,63.9525,296.1591,0,U,48097,999,29165,-.28932E-4,-.1263E-4,0
STARLINK-2421,2021-027G,2026-07-11T12:03:15.562080,15.31702906,.0000979,53.1593,298.8558,72.6275,287.4833,0,U,48098,999,29162,.16641E-4,.151E-5,0
STARLINK-2428,2021-027H,2026-07-11T12:21:34.659936,15.31711513,.000069,53.1571,311.6542,103.4985,256.6093,0,U,48099,999,29144,.66428E-4,.1698E-4,0
STARLINK-2430,2021-027J,2026-07-11T11:42:38.599200,15.31706875,.0000888,53.1603,296.4749,96.3174,263.7928,0,U,48100,999,29165,.2946E-4,.55E-5,0
STARLINK-2436,2021-027K,2026-07-11T12:16:42.067200,15.31705999,.0000888,53.1599,298.9368,102.4058,257.7043,0,U,48101,999,29163,.28652E-4,.524E-5,0
STARLINK-2439,2021-027N,2026-07-11T12:29:41.008128,15.31700139,.0000875,53.1609,296.6230,91.8851,268.2251,0,U,48104,999,29166,.20099E-4,.259E-5,0
STARLINK-2440,2021-027P,2026-07-10T14:22:19.341408,15.31701823,.0001156,53.1567,249.3815,83.6374,276.4758,0,U,48105,999,29223,.15375E-3,.4409E-4,0
STARLINK-2442,2021-027Q,2026-07-11T12:09:02.613600,15.31706272,.0000646,53.1591,296.5693,46.6751,313.4304,0,U,48106,999,29165,-.10771E-4,-.699E-5,0
STARLINK-2443,2021-027R,2026-07-11T12:49:48.925056,15.31704248,.0000822,53.1597,296.5585,119.9297,240.1786,0,U,48107,999,29165,-.35396E-5,-.475E-5,0
STARLINK-2448,2021-027V,2026-07-11T12:02:35.683296,15.44540990,.0000969,53.1544,293.2424,330.6790,29.4162,0,U,48111,999,29171,.80656E-3,.37798E-3,0
STARLINK-2449,2021-027W,2026-07-11T12:21:05.728896,15.31701099,.0001414,53.1602,311.6497,65.4871,294.6277,0,U,48112,999,29145,.19511E-4,.24E-5,0
STARLINK-2450,2021-027X,2026-07-11T12:34:03.577728,15.31697495,.0001109,53.1607,309.1283,65.6257,294.4860,0,U,48113,999,29147,.46282E-4,.1071E-4,0
STARLINK-2452,2021-027Z,2026-07-11T12:56:56.808960,15.31705284,.000092,53.1617,298.6704,45.3663,314.7414,0,U,48115,999,29162,.34498E-4,.706E-5,0
STARLINK-2454,2021-027AA,2026-07-11T12:07:19.610112,15.31687016,.0002098,53.1608,309.7661,104.2977,255.8258,0,U,48116,999,29147,-.75866E-6,-.389E-5,0
STARLINK-2455,2021-027AB,2026-07-11T11:48:52.773408,15.31704765,.0000926,53.1603,296.4585,113.3342,246.7757,0,U,48117,999,29165,.29785E-4,.56E-5,0
STARLINK-2459,2021-027AD,2026-07-11T11:49:19.745760,15.31712099,.0000901,53.1555,296.3750,155.4721,204.6324,0,U,48119,999,29164,.73848E-4,.1928E-4,0
STARLINK-2460,2021-027AE,2026-07-11T11:57:29.021184,15.44312096,.0001983,53.1587,306.1077,333.6172,26.4733,0,U,48120,999,29153,.40287E-3,.18474E-3,0
STARLINK-2462,2021-027AF,2026-07-11T12:09:57.373920,15.31701614,.0000652,53.1574,298.8436,75.2081,284.8993,0,U,48121,999,29162,-.68681E-4,-.2495E-4,0
STARLINK-2464,2021-027AH,2026-07-11T11:56:05.731584,15.31707086,.0001249,53.1598,296.5625,123.6445,236.4676,0,U,48123,999,29165,.36208E-4,.759E-5,0
STARLINK-2465,2021-027AJ,2026-07-11T12:23:24.953856,15.31710843,.0000938,53.1585,298.8266,94.0455,266.0654,0,U,48124,999,29162,.81176E-4,.2156E-4,0
STARLINK-2466,2021-027AK,2026-07-11T12:00:31.274208,15.31685148,.0002175,53.1583,309.5247,67.7435,292.3797,0,U,48125,999,29147,-.49093E-6,-.381E-5,0
STARLINK-2467,2021-027AL,2026-07-11T12:22:25.841568,15.31699110,.0000868,53.1596,296.3316,67.8015,292.3079,0,U,48126,999,29166,.2927E-4,.543E-5,0
STARLINK-2468,2021-027AM,2026-07-11T12:26:53.316096,15.31692568,.0001025,53.1589,309.2440,33.9401,326.1666,0,U,48127,999,29148,-.40176E-5,-.49E-5,0
STARLINK-2469,2021-027AN,2026-07-10T04:38:18.418272,15.29901638,.00040162,53.1014,257.0250,346.7334,13.3560,0,U,48128,999,29207,.14043464E-2,.41089E-3,0
STARLINK-2471,2021-027AP,2026-07-11T12:40:48.042048,15.31699157,.0000939,53.1591,309.3671,91.6237,268.4872,0,U,48129,999,29148,-.21621E-4,-.1036E-4,0
STARLINK-2472,2021-027AQ,2026-07-11T12:54:42.598656,15.31721540,.0000882,53.1602,311.9408,70.0539,290.0557,0,U,48130,999,29145,-.27392E-3,-.8861E-4,0
STARLINK-2473,2021-027AR,2026-07-11T11:29:17.640096,15.31705759,.0001152,53.1598,296.8891,57.8580,302.2533,0,U,48131,999,29164,.346E-4,.709E-5,0
STARLINK-2474,2021-027AS,2026-07-11T11:27:53.520192,15.31710570,.00009,53.1594,311.8212,94.1806,265.9298,0,U,48132,999,29143,.56397E-4,.1386E-4,0
STARLINK-2475,2021-027AT,2026-07-11T11:53:46.893696,15.31707411,.0000493,53.1610,309.3473,94.1167,265.9890,0,U,48133,999,29148,-.36354E-5,-.477E-5,0
STARLINK-2476,2021-027AU,2026-07-11T12:47:26.932704,15.31709312,.0000628,53.1600,309.0277,73.3289,286.7781,0,U,48134,999,29148,.38171E-4,.82E-5,0
STARLINK-2478,2021-027AV,2026-07-11T11:34:37.589664,15.31709011,.0001204,53.1586,311.9775,121.8969,238.2149,0,U,48135,999,29144,.13263E-5,-.324E-5,0
STARLINK-2479,2021-027AW,2026-07-11T12:27:21.875616,15.31698110,.0000871,53.1567,309.3864,76.4839,283.6259,0,U,48136,999,29148,-.47486E-5,-.512E-5,0
STARLINK-2480,2021-027AX,2026-07-11T11:30:15.732000,15.31707762,.0001078,53.1602,299.3793,89.3975,270.7150,0,U,48137,999,29160,.31536E-4,.614E-5,0
STARLINK-2481,2021-027AY,2026-07-11T12:48:25.041888,15.31715003,.0000645,53.1599,311.5391,76.7054,283.4019,0,U,48138,999,29145,-.81759E-4,-.2902E-4,0
STARLINK-2482,2021-027AZ,2026-07-11T11:55:38.527680,15.31700154,.000077,53.1609,296.6835,67.3806,292.7276,0,U,48139,999,29165,.2865E-4,.524E-5,0
STARLINK-2483,2021-027BA,2026-07-11T13:00:57.794112,15.31690013,.0001069,53.1599,309.4126,35.9005,324.2068,0,U,48140,999,29148,.24179E-3,.7143E-4,0
STARLINK-2485,2021-027BC,2026-07-11T12:35:58.390368,15.31703951,.0000782,53.1581,296.8687,55.8122,304.2953,0,U,48142,999,29165,.28825E-4,.53E-5,0
STARLINK-2486,2021-027BD,2026-07-11T11:46:11.443008,15.42011977,.0002104,53.1524,241.0667,351.4301,8.6668,0,U,48143,999,29243,.7539E-3,.32373E-3,0
STARLINK-2487,2021-027BE,2026-07-11T11:28:45.596928,15.31693960,.0001515,53.1612,296.5399,81.2005,278.9168,0,U,48144,999,29164,.46087E-4,.1065E-4,0
STARLINK-2491,2021-027BJ,2026-07-11T11:40:26.701824,15.31714069,.0000935,53.1582,309.7170,59.8100,300.2994,0,U,48148,999,29146,.12023E-3,.3369E-4,0
STARLINK-2492,2021-027BK,2026-07-11T12:02:23.730720,15.31702149,.0000803,53.1601,296.8794,95.1874,264.9219,0,U,48149,999,29164,.11864E-4,.3E-7,0
STARLINK-2493,2021-027BL,2026-07-11T11:42:13.497408,15.31702258,.0000928,53.1609,296.7571,48.4724,311.6357,0,U,48150,999,29165,.24525E-4,.396E-5,0
STARLINK-2503,2021-027BM,2026-07-11T11:35:58.067808,15.31707344,.0000922,53.1600,296.6819,93.9148,266.1958,0,U,48151,999,29165,.69926E-5,-.148E-5,0
SHIYAN-6 03 (SY-6 03),2021-028A,2026-07-11T11:48:03.376800,13.77602142,.004666,99.5279,206.4545,24.6424,335.6942,0,U,48157,999,26285,.20135E-4,-.25E-6,0
ONEWEB-0176,2021-031A,2026-07-11T05:34:23.060640,13.14502235,.0002143,87.8967,284.9086,101.4158,258.7213,0,U,48210,999,25147,.13212E-3,.62E-6,0
ONEWEB-0184,2021-031B,2026-07-11T04:55:33.771072,13.14502371,.0002522,87.8978,284.9157,116.4342,243.7046,0,U,48211,999,25144,-.54454E-3,-.189E-5,0
ONEWEB-0179,2021-031C,2026-07-11T05:48:31.728096,14.25564813,.0221077,87.8993,281.1837,178.2849,181.9155,0,U,48212,999,25247,.44223E-3,.1372E-4,0
ONEWEB-0180,2021-031D,2026-07-11T05:00:08.205120,13.14502558,.0002496,87.8978,284.9118,100.0559,260.0853,0,U,48213,999,25137,-.69828E-3,-.246E-5,0
ONEWEB-0218,2021-031E,2026-07-11T05:32:06.114912,13.14503487,.0002737,87.8976,284.9076,114.1228,246.0188,0,U,48214,999,25153,.25711E-3,.108E-5,0
ONEWEB-0209,2021-031F,2026-07-11T05:16:07.576032,13.14503468,.0002278,87.8966,284.9238,96.7031,263.4358,0,U,48215,999,25153,-.38656E-3,-.131E-5,0
ONEWEB-0198,2021-031G,2026-07-10T05:08:33.497376,13.14502687,.0002456,87.8960,285.1218,102.9387,257.2017,0,U,48216,999,25151,-.54436403E-3,-.189E-5,0
ONEWEB-0189,2021-031H,2026-07-11T05:11:32.984736,13.14502412,.0002403,87.8971,284.9107,102.0951,258.0448,0,U,48217,999,25138,-.47657E-3,-.164E-5,0
ONEWEB-0196,2021-031J,2026-07-10T15:52:18.780672,13.14502206,.0002194,87.8969,285.0302,98.9921,261.1457,0,U,48218,999,25131,-.3513E-3,-.117E-5,0
ONEWEB-0183,2021-031K,2026-07-11T05:52:39.211392,13.14501857,.0002025,87.8968,284.9114,93.4300,266.7061,0,U,48219,999,25148,.4962E-3,.197E-5,0
